GLOBALSTAR M068         
1 32266U 07048D   25150.49399412 -.00000101  00000+0  18019-4 0  9997
2 32266  51.9907 356.1920 0001854  90.9866 299.5006 12.62823486815326
GLOBALSTAR M079         
1 37188U 10054A   25150.53948101 -.00000093  00000+0  62450-4 0  9994
2 37188  52.0018 193.5081 0000304 214.4375 301.2125 12.62264881674220
GLOBALSTAR M074         
1 37189U 10054B   25150.37635319 -.00000090  00000+0  77115-4 0  9992
2 37189  51.9996 193.3312 0000071  69.5778 303.4227 12.62270138674810
GLOBALSTAR M076         
1 37190U 10054C   25150.51167766 -.00000075  00000+0  15937-3 0  9992
2 37190  52.0008 193.0876 0000135 270.1621 238.6117 12.62263349674541
GLOBALSTAR M077         
1 37191U 10054D   25150.41989203 -.00000120  00000+0 -89245-4 0  9996
2 37191  52.0044 150.2179 0000145  25.0801 126.0616 12.62268376674900
GLOBALSTAR M075         
1 37192U 10054E   25150.43076765 -.00000067  00000+0  20765-3 0  9999
2 37192  51.9941 235.6015 0000449 129.6179 310.9443 12.62265363673609
GLOBALSTAR M073         
1 37193U 10054F   25150.52584682 -.00000116  00000+0 -66035-4 0  9999
2 37193  52.0031 149.1170 0000180 335.8776 176.3726 12.62271946675603
GLOBALSTAR M083         
1 37739U 11033A   25150.62240968 -.00000116  00000+0 -67629-4 0  9990
2 37739  51.9851  97.5769 0000324  62.9101 108.1470 12.62263486644994
GLOBALSTAR M088         
1 37740U 11033B   25150.03780522 -.00000081  00000+0  12431-3 0  9992
2 37740  52.0068   4.8847 0000908  83.2096  70.6724 12.62245334640109
GLOBALSTAR M091         
1 37741U 11033C   25150.49638828 -.00000088  00000+0  86784-4 0  9994
2 37741  52.0009 326.9918 0000927 117.3126 261.4207 12.62268196640956
GLOBALSTAR M085         
1 37742U 11033D   25150.57599685 -.00000075  00000+0  16089-3 0  9997
2 37742  51.9873 277.8027 0000793 135.9227 305.1310 12.62268737641478
GLOBALSTAR M081         
1 37743U 11033E   25150.68733010 -.00000082  00000+0  12376-3 0  9995
2 37743  51.9965 280.2416 0000606 138.9966 327.1801 12.62264206642014
GLOBALSTAR M089         
1 37744U 11033F   25150.54800132 -.00000071  00000+0  18345-3 0  9991
2 37744  51.9924 234.8954 0000301 100.7785 273.3775 12.62264256642466
GLOBALSTAR M084         
1 38040U 11080A   25150.59595659 -.00000105  00000+0 -68106-5 0  9994
2 38040  51.9999 102.0262 0000688  24.8502 146.3196 12.62266380620447
GLOBALSTAR M080         
1 38041U 11080B   25150.64654271 -.00000104  00000+0 -36279-6 0  9993
2 38041  52.0049 103.4574 0000669  87.9026  83.1370 12.62263251620577
GLOBALSTAR M082         
1 38042U 11080C   25150.50346034 -.00000087  00000+0  93575-4 0  9993
2 38042  52.0089  59.3524 0000811  93.1179  77.8178 12.62266252621260
GLOBALSTAR M092         
1 38043U 11080D   25150.55217976 -.00000111  00000+0 -38282-4 0  9994
2 38043  52.0064 149.5806 0000178  46.0294 106.5162 12.62264313619727
GLOBALSTAR M090         
1 38044U 11080E   25149.95555514 -.00000089  00000+0  84957-4 0  9993
2 38044  51.9904  54.8506 0000615  78.3420   2.1926 12.62270380621351
GLOBALSTAR M086         
1 38045U 11080F   25150.47696410 -.00000089  00000+0  79892-4 0  9996
2 38045  51.9915  53.8121 0000570 320.9496 210.5870 12.62271170621323
GLOBALSTAR M097         
1 39072U 13005A   25150.78253213 -.00000092  00000+0  66923-4 0  9995
2 39072  52.0061 327.4126 0000661 112.3608 247.7329 12.62272259568692
GLOBALSTAR M093         
1 39073U 13005B   25150.59771970 -.00000092  00000+0  64483-4 0  9999
2 39073  51.9824 321.3057 0000728 116.6317 243.4624 12.62264909568540
GLOBALSTAR M094         
1 39074U 13005C   25150.51854738 -.00000076  00000+0  15294-3 0  9993
2 39074  51.9954 235.9116 0000519 171.3016 188.7860 12.62262384570140
GLOBALSTAR M096         
1 39075U 13005D   25150.61095882 -.00000082  00000+0  11975-3 0  9991
2 39075  52.0081 284.1311 0000793 141.5898 218.5025 12.62271532569078
GLOBALSTAR M078         
1 39076U 13005E   25150.34685964 -.00000196  00000+0 -51257-3 0  9992
2 39076  51.9896   9.4677 0001440 114.8783 245.2234 12.62261940567664
GLOBALSTAR M095         
1 39077U 13005F   25150.29405563 -.00000087  00000+0  91270-4 0  9990
2 39077  51.9821   6.8342 0000957 116.0862 244.0103 12.62263233567510
GLOBALSTAR M087         
1 52888U 22064A   25150.72066039 -.00000114  00000+0 -56413-4 0  9991
2 52888  51.9967 146.9748 0000114  89.4542 270.6338 12.62263481143166
